{
  "type": "FeatureCollection",
  "name": "resource_items",
  "features": [
    {
      "type": "Feature",
      "properties": {
        "id": "RES001",
        "event_id": "mataian_2025",
        "agency_level": "中央",
        "ministry": "農業部",
        "sub_agency": "林業及自然保育署",
        "program_name": "馬太鞍溪堰塞湖致災情境與防災對策評估",
        "work_category": "風險分析",
        "resource_type": "委託研究",
        "amount": "0",
        "amount_unit": "未揭露",
        "location_text": "馬太鞍溪堰塞湖所在集水區及下游溢淹範圍",
        "location_type": "河川",
        "admin_county": "花蓮縣",
        "admin_town": "光復鄉",
        "river_basin": "花蓮溪流域",
        "river_name": "馬太鞍溪",
        "river_segment": "上游",
        "spatial_role": "河道",
        "geometry_type": "point",
        "status": "執行中",
        "source_id": "SRC001",
        "source_title": "馬太鞍溪堰塞湖致災情境與防災對策評估服務建議書",
        "source_url": "",
        "source_date": "2026-04-16",
        "evidence_text": "辦理馬太鞍溪堰塞湖致災情境、潰壩溢淹模式、防災對策與潛勢圖資製作；範圍含馬太鞍溪集水區下游河道及光復村、明利村等鄰近地區。",
        "confidence": "高",
        "stability_score": "8",
        "reviewer_note": "公開徵求文件整理；金額需回查採購公告。",
        "reviewed": "False",
        "publication_status": "public_metadata",
        "stability_label": "高穩定"
      },
      "geometry": {
        "type": "Point",
        "coordinates": [
          121.425,
          23.65
        ]
      }
    },
    {
      "type": "Feature",
      "properties": {
        "id": "RES002",
        "event_id": "mataian_2025",
        "agency_level": "中央",
        "ministry": "農業部",
        "sub_agency": "林業及自然保育署",
        "program_name": "堰塞湖潰壩影響範圍分析方法之研究",
        "work_category": "潰壩分析",
        "resource_type": "委託研究",
        "amount": "9600000",
        "amount_unit": "元",
        "location_text": "花蓮馬太鞍溪堰塞湖及下游影響範圍",
        "location_type": "河川",
        "admin_county": "花蓮縣",
        "admin_town": "光復鄉",
        "river_basin": "花蓮溪流域",
        "river_name": "馬太鞍溪",
        "river_segment": "中下游",
        "spatial_role": "河道",
        "geometry_type": "point",
        "status": "已公告",
        "source_id": "SRC002",
        "source_title": "堰塞湖潰壩影響範圍分析方法之研究服務建議書徵求文件",
        "source_url": "",
        "source_date": "2026-03-30",
        "evidence_text": "預算金額新臺幣9600000元；工作包含潰壩水理分析技術、模式比對、馬太鞍溪情境模擬與緊急評估。",
        "confidence": "高",
        "stability_score": "9",
        "reviewer_note": "公開徵求文件整理。",
        "reviewed": "False",
        "publication_status": "public_metadata",
        "stability_label": "高穩定"
      },
      "geometry": {
        "type": "Point",
        "coordinates": [
          121.438,
          23.66
        ]
      }
    },
    {
      "type": "Feature",
      "properties": {
        "id": "RES003",
        "event_id": "mataian_2025",
        "agency_level": "中央",
        "ministry": "經濟部",
        "sub_agency": "水利署",
        "program_name": "高含砂水流模擬技術及河川治理策略研究",
        "work_category": "河川治理",
        "resource_type": "委託研究",
        "amount": "0",
        "amount_unit": "未揭露",
        "location_text": "馬太鞍溪及花蓮溪下游河道治理相關範圍",
        "location_type": "河川",
        "admin_county": "花蓮縣",
        "admin_town": "光復鄉",
        "river_basin": "花蓮溪流域",
        "river_name": "馬太鞍溪",
        "river_segment": "下游",
        "spatial_role": "河道",
        "geometry_type": "point",
        "status": "採購規劃",
        "source_id": "SRC003",
        "source_title": "高含砂水流模擬技術及河川治理策略研究委託服務計畫說明書",
        "source_url": "",
        "source_date": "2026-03-30",
        "evidence_text": "水利署聚焦下游河道治理所需之高含砂水流模擬技術、河川治理策略、構造物脆弱度評估與警戒指標探討。",
        "confidence": "高",
        "stability_score": "6",
        "reviewer_note": "公開委託服務計畫說明書整理；金額需回查採購公告。",
        "reviewed": "False",
        "publication_status": "public_metadata",
        "stability_label": "中穩定"
      },
      "geometry": {
        "type": "Point",
        "coordinates": [
          121.47,
          23.72
        ]
      }
    },
    {
      "type": "Feature",
      "properties": {
        "id": "RES004",
        "event_id": "mataian_2025",
        "agency_level": "中央",
        "ministry": "經濟部",
        "sub_agency": "水利署水利規劃分署",
        "program_name": "花蓮溪水系治理規劃檢討",
        "work_category": "治理規劃",
        "resource_type": "委託技術服務",
        "amount": "14500000",
        "amount_unit": "元",
        "location_text": "花蓮溪水系含馬太鞍溪相關河段",
        "location_type": "流域",
        "admin_county": "花蓮縣",
        "admin_town": "",
        "river_basin": "花蓮溪流域",
        "river_name": "花蓮溪",
        "river_segment": "全河段",
        "spatial_role": "河道",
        "geometry_type": "point",
        "status": "已公告",
        "source_id": "SRC004",
        "source_title": "花蓮溪水系治理規劃檢討招標文件",
        "source_url": "",
        "source_date": "2026-03-30",
        "evidence_text": "自行整理表格記載以樂工程顧問股份有限公司、金額約1450萬元；工作包含流域概況、洪水量與水文分析、河川特性分析、多元治水課題與對策。",
        "confidence": "中",
        "stability_score": "8",
        "reviewer_note": "由自行整理表格轉成 metadata，需比對公開採購公告。",
        "reviewed": "False",
        "publication_status": "private_reference",
        "stability_label": "高穩定"
      },
      "geometry": {
        "type": "Point",
        "coordinates": [
          121.5,
          23.78
        ]
      }
    },
    {
      "type": "Feature",
      "properties": {
        "id": "RES005",
        "event_id": "mataian_2025",
        "agency_level": "中央",
        "ministry": "經濟部",
        "sub_agency": "第九河川分署",
        "program_name": "115年度九河分署轄區洪水預警及防汛整合作業",
        "work_category": "監測預警",
        "resource_type": "委託服務",
        "amount": "9000000",
        "amount_unit": "元",
        "location_text": "九河分署轄區及馬太鞍溪相關監測點",
        "location_type": "監測點",
        "admin_county": "花蓮縣",
        "admin_town": "光復鄉",
        "river_basin": "花蓮溪流域",
        "river_name": "馬太鞍溪",
        "river_segment": "下游",
        "spatial_role": "監測設施",
        "geometry_type": "point",
        "status": "執行中",
        "source_id": "SRC005",
        "source_title": "馬太鞍溪相關調查案比較表",
        "source_url": "",
        "source_date": "2026-03-31",
        "evidence_text": "自行整理表格記載禾騰技術股份有限公司、金額約900萬元；每月沖淤比對、水理模擬，並涉及CCTV、水位計、廣播系統、雨量鬧鐘等防汛整合作業。",
        "confidence": "中",
        "stability_score": "9",
        "reviewer_note": "由自行整理表格轉成 metadata，需公開來源佐證。",
        "reviewed": "False",
        "publication_status": "private_reference",
        "stability_label": "高穩定"
      },
      "geometry": {
        "type": "Point",
        "coordinates": [
          121.43,
          23.67
        ]
      }
    },
    {
      "type": "Feature",
      "properties": {
        "id": "RES006",
        "event_id": "mataian_2025",
        "agency_level": "中央",
        "ministry": "經濟部",
        "sub_agency": "第九河川分署",
        "program_name": "114-115年花蓮溪流域含馬太鞍溪UAV數值地形測量",
        "work_category": "地形測量",
        "resource_type": "委託服務",
        "amount": "4200000",
        "amount_unit": "元",
        "location_text": "花蓮溪流域含馬太鞍溪",
        "location_type": "流域",
        "admin_county": "花蓮縣",
        "admin_town": "光復鄉",
        "river_basin": "花蓮溪流域",
        "river_name": "馬太鞍溪",
        "river_segment": "中下游",
        "spatial_role": "地形測量",
        "geometry_type": "point",
        "status": "執行中",
        "source_id": "SRC006",
        "source_title": "馬太鞍溪相關調查案比較表",
        "source_url": "",
        "source_date": "2026-03-31",
        "evidence_text": "自行整理表格記載群立科技股份有限公司、金額約420萬元；每月辦理地形測量並產製DEM，支援河道變化與治理研判。",
        "confidence": "中",
        "stability_score": "9",
        "reviewer_note": "由自行整理表格轉成 metadata，需公開來源佐證。",
        "reviewed": "False",
        "publication_status": "private_reference",
        "stability_label": "高穩定"
      },
      "geometry": {
        "type": "Point",
        "coordinates": [
          121.455,
          23.7
        ]
      }
    },
    {
      "type": "Feature",
      "properties": {
        "id": "RES007",
        "event_id": "mataian_2025",
        "agency_level": "中央",
        "ministry": "公共工程委員會",
        "sub_agency": "",
        "program_name": "花蓮馬太鞍永續發展整體規劃",
        "work_category": "整體規劃",
        "resource_type": "委託技術服務",
        "amount": "0",
        "amount_unit": "未揭露",
        "location_text": "光復鄉、萬榮鄉及鳳林鎮受災及周邊地區",
        "location_type": "行政區",
        "admin_county": "花蓮縣",
        "admin_town": "光復鄉",
        "river_basin": "花蓮溪流域",
        "river_name": "馬太鞍溪",
        "river_segment": "中游",
        "spatial_role": "聚落",
        "geometry_type": "point",
        "status": "已公告",
        "source_id": "SRC007",
        "source_title": "花蓮馬太鞍永續發展整體規劃委託專業技術服務案",
        "source_url": "",
        "source_date": "2026-03-30",
        "evidence_text": "計畫範圍以馬太鞍溪堰塞湖災害影響範圍為主，包含光復鄉、萬榮鄉及鳳林鎮，重點為災後重建整體規劃、跨部會整合、防災韌性與產業復甦。",
        "confidence": "高",
        "stability_score": "7",
        "reviewer_note": "公開需求書整理；金額需回查採購公告。",
        "reviewed": "False",
        "publication_status": "public_metadata",
        "stability_label": "中穩定"
      },
      "geometry": {
        "type": "Point",
        "coordinates": [
          121.421,
          23.666
        ]
      }
    },
    {
      "type": "Feature",
      "properties": {
        "id": "RES008",
        "event_id": "mataian_2025",
        "agency_level": "中央",
        "ministry": "農業部",
        "sub_agency": "農村水保署",
        "program_name": "馬太鞍溪崩塌區與河道地形變化分析成果",
        "work_category": "地形分析",
        "resource_type": "調查分析",
        "amount": "0",
        "amount_unit": "未揭露",
        "location_text": "馬太鞍溪崩塌區、中游河道、下游河道",
        "location_type": "河川",
        "admin_county": "花蓮縣",
        "admin_town": "光復鄉",
        "river_basin": "花蓮溪流域",
        "river_name": "馬太鞍溪",
        "river_segment": "全河段",
        "spatial_role": "地形變化",
        "geometry_type": "point",
        "status": "已發布",
        "source_id": "SRC008",
        "source_title": "馬太鞍溪崩塌區與河道地形變化分析成果",
        "source_url": "",
        "source_date": "2026-05-28",
        "evidence_text": "文件摘要顯示分析崩塌區、中游及下游河道土砂堆積與剖面變化；因包含圖資與剖面圖，公開網頁僅使用 metadata，不再製原圖。",
        "confidence": "中",
        "stability_score": "5",
        "reviewer_note": "只公開 metadata，不公開報告圖或剖面圖。",
        "reviewed": "False",
        "publication_status": "public_metadata",
        "stability_label": "中穩定"
      },
      "geometry": {
        "type": "Point",
        "coordinates": [
          121.405,
          23.645
        ]
      }
    }
  ]
}